STARLINK-30480          
1 58069U 23158U   26068.50969982  .00008629  00000+0  32270-3 0  9998
2 58069  42.9995 245.8442 0003556 286.2390  73.8070 15.27582544135216
FLOCK 4G-1              
1 62666U 25009BK  26068.75951132  .00013534  00000+0  50654-3 0  9995
2 62666  97.4059 151.3158 0003180 323.1401  36.9619 15.27421081 63725
